start=new Date('2023-03-26T00:00:00.000Z').valueOf();
sats=[{"SEMIMAJOR_AXIS":"6917.901","NORAD_CAT_ID":"53888","COUNTRY_CODE":"US","EPHEMERIS_TYPE":"0","OBJECT_NAME":"STARLINK-5034","MEAN_ANOMALY":"278.5196","SITE":"AFETR","REV_AT_EPOCH":"2824","MEAN_ELEMENT_THEORY":"SGP4","TIME_SYSTEM":"UTC","BSTAR":"-0.00006907600000","RCS_SIZE":"LARGE","FILE":"3870840","PERIAPSIS":"538.834","CLASSIFICATION_TYPE":"U","MEAN_MOTION":"15.08833381","CENTER_NAME":"EARTH","ECCENTRICITY":"0.00013470","PERIOD":"95.438","APOAPSIS":"540.697","MEAN_MOTION_DOT":"-0.00001387","OBJECT_TYPE":"PAYLOAD","GP_ID":"228842802","TLE_LINE1":"1 53888U 22119C   23084.85572345 -.00001387  00000-0 -69076-4 0  9996","INCLINATION":"53.2184","RA_OF_ASC_NODE":"131.8786","REF_FRAME":"TEME","MEAN_MOTION_DDOT":"0.0000000000000","LAUNCH_DATE":"2022-09-24","TLE_LINE2":"2 53888  53.2184 131.8786 0001347  81.5949 278.5196 15.08833381 28246","ELEMENT_SET_NO":"999","OBJECT_ID":"2022-119C","DECAY_DATE":null,"ARG_OF_PERICENTER":"81.5949","EPOCH":"2023-03-25T20:32:14.506080"},{"MEAN_ELEMENT_THEORY":"SGP4","TIME_SYSTEM":"UTC","BSTAR":"-0.00014869000000","SITE":"AFETR","REV_AT_EPOCH":"2866","CENTER_NAME":"EARTH","FILE":"3871104","RCS_SIZE":"LARGE","PERIAPSIS":"538.686","MEAN_MOTION":"15.08833163","CLASSIFICATION_TYPE":"U","COUNTRY_CODE":"US","SEMIMAJOR_AXIS":"6917.901","NORAD_CAT_ID":"53889","EPHEMERIS_TYPE":"0","OBJECT_NAME":"STARLINK-5031","MEAN_ANOMALY":"277.9177","LAUNCH_DATE":"2022-09-24","TLE_LINE2":"2 53889  53.2180 131.8541 0001561  82.1992 277.9177 15.08833163 28661","MEAN_MOTION_DDOT":"0.0000000000000","DECAY_DATE":null,"EPOCH":"2023-03-25T20:26:55.232160","ARG_OF_PERICENTER":"82.1992","ELEMENT_SET_NO":"999","OBJECT_ID":"2022-119D","OBJECT_TYPE":"PAYLOAD","MEAN_MOTION_DOT":"-0.00002653","PERIOD":"95.438","ECCENTRICITY":"0.00015610","APOAPSIS":"540.846","REF_FRAME":"TEME","GP_ID":"228873284","TLE_LINE1":"1 53889U 22119D   23084.85202815 -.00002653  00000-0 -14869-3 0  9995","INCLINATION":"53.2180","RA_OF_ASC_NODE":"131.8541"},{"SEMIMAJOR_AXIS":"6917.925","NORAD_CAT_ID":"53890","COUNTRY_CODE":"US","EPHEMERIS_TYPE":"0","OBJECT_NAME":"STARLINK-5050","MEAN_ANOMALY":"253.9818","REV_AT_EPOCH":"2914","SITE":"AFETR","MEAN_ELEMENT_THEORY":"SGP4","TIME_SYSTEM":"UTC","BSTAR":"-0.00006338100000","RCS_SIZE":"LARGE","FILE":"3871104","PERIAPSIS":"539.130","CLASSIFICATION_TYPE":"U","MEAN_MOTION":"15.08825348","CENTER_NAME":"EARTH","ECCENTRICITY":"0.00009550","PERIOD":"95.438","APOAPSIS":"540.451","OBJECT_TYPE":"PAYLOAD","MEAN_MOTION_DOT":"-0.00001296","GP_ID":"228873534","TLE_LINE1":"1 53890U 22119E   23084.74394408 -.00001296  00000-0 -63381-4 0  9991","RA_OF_ASC_NODE":"96.9366","INCLINATION":"53.2190","REF_FRAME":"TEME","MEAN_MOTION_DDOT":"0.0000000000000","LAUNCH_DATE":"2022-09-24","TLE_LINE2":"2 53890  53.2190  96.9366 0000955 106.1280 253.9818 15.08825348 29149","ELEMENT_SET_NO":"999","OBJECT_ID":"2022-119E","DECAY_DATE":null,"EPOCH":"2023-03-25T17:51:16.768512","ARG_OF_PERICENTER":"106.1280"},{"CENTER_NAME":"EARTH","CLASSIFICATION_TYPE":"U","MEAN_MOTION":"15.08855397","FILE":"3870844","RCS_SIZE":"LARGE","PERIAPSIS":"538.524","BSTAR":"-0.00056478000000","MEAN_ELEMENT_THEORY":"SGP4","TIME_SYSTEM":"UTC","SITE":"AFETR","REV_AT_EPOCH":"2824","OBJECT_NAME":"STARLINK-5041","MEAN_ANOMALY":"220.5022","EPHEMERIS_TYPE":"0","COUNTRY_CODE":"US","NORAD_CAT_ID":"53891","SEMIMAJOR_AXIS":"6917.833","ARG_OF_PERICENTER":"139.6096","EPOCH":"2023-03-25T20:16:19.164864","DECAY_DATE":null,"OBJECT_ID":"2022-119F","ELEMENT_SET_NO":"999","TLE_LINE2":"2 53891  53.2195 131.8072 0001698 139.6096 220.5022 15.08855397 28243","LAUNCH_DATE":"2022-09-24","MEAN_MOTION_DDOT":"0.0000000000000","REF_FRAME":"TEME","TLE_LINE1":"1 53891U 22119F   23084.84466626 -.00009269  00000-0 -56478-3 0  9991","INCLINATION":"53.2195","RA_OF_ASC_NODE":"131.8072","GP_ID":"228842618","MEAN_MOTION_DOT":"-0.00009269","OBJECT_TYPE":"PAYLOAD","APOAPSIS":"540.873","PERIOD":"95.437","ECCENTRICITY":"0.00016980"},{"MEAN_MOTION_DOT":"-0.00001122","OBJECT_TYPE":"PAYLOAD","APOAPSIS":"543.269","ECCENTRICITY":"0.00013580","PERIOD":"95.491","REF_FRAME":"TEME","RA_OF_ASC_NODE":"131.6906","INCLINATION":"53.2179","TLE_LINE1":"1 53892U 22119G   23084.82549111 -.00001122  00000-0 -53797-4 0  9993","GP_ID":"228875037","TLE_LINE2":"2 53892  53.2179 131.6906 0001358  94.6814 265.4333 15.07995053 28663","LAUNCH_DATE":"2022-09-24","MEAN_MOTION_DDOT":"0.0000000000000","ARG_OF_PERICENTER":"94.6814","EPOCH":"2023-03-25T19:48:42.431904","DECAY_DATE":null,"OBJECT_ID":"2022-119G","ELEMENT_SET_NO":"999","COUNTRY_CODE":"US","SEMIMAJOR_AXIS":"6920.464","NORAD_CAT_ID":"53892","MEAN_ANOMALY":"265.4333","OBJECT_NAME":"STARLINK-5046","EPHEMERIS_TYPE":"0","BSTAR":"-0.00005379700000","MEAN_ELEMENT_THEORY":"SGP4","TIME_SYSTEM":"UTC","SITE":"AFETR","REV_AT_EPOCH":"2866","CENTER_NAME":"EARTH","CLASSIFICATION_TYPE":"U","MEAN_MOTION":"15.07995053","PERIAPSIS":"541.389","FILE":"3871104","RCS_SIZE":"LARGE"},{"TLE_LINE2":"2 53893  53.2159 131.7391 0000726  87.4686 272.6389 15.08824380 28662","LAUNCH_DATE":"2022-09-24","MEAN_MOTION_DDOT":"0.0000000000000","ARG_OF_PERICENTER":"87.4686","EPOCH":"2023-03-25T20:00:23.935968","DECAY_DATE":null,"OBJECT_ID":"2022-119H","ELEMENT_SET_NO":"999","OBJECT_TYPE":"PAYLOAD","MEAN_MOTION_DOT":"-0.00002705","APOAPSIS":"540.295","PERIOD":"95.439","ECCENTRICITY":"0.00007260","REF_FRAME":"TEME","RA_OF_ASC_NODE":"131.7391","INCLINATION":"53.2159","TLE_LINE1":"1 53893U 22119H   23084.83361037 -.00002705  00000-0 -15200-3 0  9998","GP_ID":"228873785","BSTAR":"-0.00015200000000","MEAN_ELEMENT_THEORY":"SGP4","TIME_SYSTEM":"UTC","SITE":"AFETR","REV_AT_EPOCH":"2866","CENTER_NAME":"EARTH","MEAN_MOTION":"15.08824380","CLASSIFICATION_TYPE":"U","PERIAPSIS":"539.291","FILE":"3871104","RCS_SIZE":"LARGE","COUNTRY_CODE":"US","SEMIMAJOR_AXIS":"6917.928","NORAD_CAT_ID":"53893","MEAN_ANOMALY":"272.6389","OBJECT_NAME":"STARLINK-5052","EPHEMERIS_TYPE":"0"},{"ARG_OF_PERICENTER":"115.2296","EPOCH":"2023-03-25T20:11:01.948992","DECAY_DATE":null,"OBJECT_ID":"2022-119J","ELEMENT_SET_NO":"999","TLE_LINE2":"2 53894  53.2175 131.7855 0001643 115.2296 244.8866 15.08810948 28668","LAUNCH_DATE":"2022-09-24","MEAN_MOTION_DDOT":"0.0000000000000","REF_FRAME":"TEME","RA_OF_ASC_NODE":"131.7855","INCLINATION":"53.2175","TLE_LINE1":"1 53894U 22119J   23084.84099478 -.00003330  00000-0 -19140-3 0  9999","GP_ID":"228874035","OBJECT_TYPE":"PAYLOAD","MEAN_MOTION_DOT":"-0.00003330","APOAPSIS":"540.971","PERIOD":"95.439","ECCENTRICITY":"0.00016430","CENTER_NAME":"EARTH","MEAN_MOTION":"15.08810948","CLASSIFICATION_TYPE":"U","PERIAPSIS":"538.698","RCS_SIZE":"LARGE","FILE":"3871104","BSTAR":"-0.00019140000000","TIME_SYSTEM":"UTC","MEAN_ELEMENT_THEORY":"SGP4","SITE":"AFETR","REV_AT_EPOCH":"2866","MEAN_ANOMALY":"244.8866","OBJECT_NAME":"STARLINK-5043","EPHEMERIS_TYPE":"0","COUNTRY_CODE":"US","NORAD_CAT_ID":"53894","SEMIMAJOR_AXIS":"6917.969"},{"FILE":"3871104","RCS_SIZE":"LARGE","PERIAPSIS":"539.170","CLASSIFICATION_TYPE":"U","MEAN_MOTION":"15.08807056","CENTER_NAME":"EARTH","SITE":"AFETR","REV_AT_EPOCH":"2866","MEAN_ELEMENT_THEORY":"SGP4","TIME_SYSTEM":"UTC","BSTAR":"-0.00027309000000","EPHEMERIS_TYPE":"0","OBJECT_NAME":"STARLINK-5032","MEAN_ANOMALY":"278.6149","NORAD_CAT_ID":"53895","SEMIMAJOR_AXIS":"6917.981","COUNTRY_CODE":"US","ELEMENT_SET_NO":"999","OBJECT_ID":"2022-119K","DECAY_DATE":null,"ARG_OF_PERICENTER":"81.4954","EPOCH":"2023-03-25T19:55:08.446368","MEAN_MOTION_DDOT":"0.0000000000000","LAUNCH_DATE":"2022-09-24","TLE_LINE2":"2 53895  53.2178 131.7166 0000978  81.4954 278.6149 15.08807056 28667","GP_ID":"228874787","TLE_LINE1":"1 53895U 22119K   23084.82995887 -.00004627  00000-0 -27309-3 0  9993","INCLINATION":"53.2178","RA_OF_ASC_NODE":"131.7166","REF_FRAME":"TEME","PERIOD":"95.440","ECCENTRICITY":"0.00009780","APOAPSIS":"540.523","MEAN_MOTION_DOT":"-0.00004627","OBJECT_TYPE":"PAYLOAD"},{"CENTER_NAME":"EARTH","MEAN_MOTION":"15.08816364","CLASSIFICATION_TYPE":"U","FILE":"3871104","RCS_SIZE":"LARGE","PERIAPSIS":"538.968","BSTAR":"-0.00001814100000","TIME_SYSTEM":"UTC","MEAN_ELEMENT_THEORY":"SGP4","SITE":"AFETR","REV_AT_EPOCH":"2866","OBJECT_NAME":"STARLINK-5037","MEAN_ANOMALY":"237.3296","EPHEMERIS_TYPE":"0","COUNTRY_CODE":"US","NORAD_CAT_ID":"53896","SEMIMAJOR_AXIS":"6917.953","ARG_OF_PERICENTER":"122.7815","EPOCH":"2023-03-25T19:44:29.716224","DECAY_DATE":null,"OBJECT_ID":"2022-119L","ELEMENT_SET_NO":"999","TLE_LINE2":"2 53896  53.2173 131.6731 0001228 122.7815 237.3296 15.08816364 28661","LAUNCH_DATE":"2022-09-24","MEAN_MOTION_DDOT":"0.0000000000000","REF_FRAME":"TEME","TLE_LINE1":"1 53896U 22119L   23084.82256616 -.00000576  00000-0 -18141-4 0  9998","RA_OF_ASC_NODE":"131.6731","INCLINATION":"53.2173","GP_ID":"228874537","OBJECT_TYPE":"PAYLOAD","MEAN_MOTION_DOT":"-0.00000576","APOAPSIS":"540.667","ECCENTRICITY":"0.00012280","PERIOD":"95.439"},{"TIME_SYSTEM":"UTC","MEAN_ELEMENT_THEORY":"SGP4","BSTAR":"0.00003450600000","REV_AT_EPOCH":"2866","SITE":"AFETR","CENTER_NAME":"EARTH","PERIAPSIS":"538.741","FILE":"3871104","RCS_SIZE":"LARGE","MEAN_MOTION":"15.08815887","CLASSIFICATION_TYPE":"U","COUNTRY_CODE":"US","NORAD_CAT_ID":"53897","SEMIMAJOR_AXIS":"6917.954","EPHEMERIS_TYPE":"0","MEAN_ANOMALY":"241.2618","OBJECT_NAME":"STARLINK-5035","LAUNCH_DATE":"2022-09-24","TLE_LINE2":"2 53897  53.2169 131.7618 0001559 118.8531 241.2618 15.08815887 28661","MEAN_MOTION_DDOT":"0.0000000000000","DECAY_DATE":null,"EPOCH":"2023-03-25T20:05:43.056096","ARG_OF_PERICENTER":"118.8531","ELEMENT_SET_NO":"999","OBJECT_ID":"2022-119M","OBJECT_TYPE":"PAYLOAD","MEAN_MOTION_DOT":"0.00000261","ECCENTRICITY":"0.00015590","PERIOD":"95.439","APOAPSIS":"540.898","REF_FRAME":"TEME","GP_ID":"228873285","RA_OF_ASC_NODE":"131.7618","INCLINATION":"53.2169","TLE_LINE1":"1 53897U 22119M   23084.83730389  .00000261  00000-0  34506-4 0  9996"}];
